{"type": "FeatureCollection", "features": [ {"type": "Feature", "properties": {"norad_id": 66859, "name": "STARLINK-35646", "group": "last-30-days", "lat": 16.247615679058878, "lon": -159.93824516171003, "alt_km": 412.5261970740721, "timestamp": "2025-12-26T15:29:38.168188+00:00", "meta": {"OBJECT_NAME": "STARLINK-35646", "OBJECT_ID": "2025-281M", "EPOCH": "2025-12-26T06:00:02.999808", "MEAN_MOTION": 15.50534156, "ECCENTRICITY": 0.00011416, "INCLINATION": 43.0003, "RA_OF_ASC_NODE": 40.6002, "ARG_OF_PERICENTER": 243.8759, "MEAN_ANOMALY": 221.2583, "EPHEMERIS_TYPE": 0, "CLASSIFICATION_TYPE": "U", "NORAD_CAT_ID": 66859, "ELEMENT_SET_NO": 999, "REV_AT_EPOCH": 355, "BSTAR": 0.00059273456, "MEAN_MOTION_DOT": 0.00034529, "MEAN_MOTION_DDOT": 0}, "tle": {"line1": "1 66859U 25281M   25360.25003472  .00034529  00000+0  59273-3 0  9992", "line2": "2 66859  43.0003  40.6002 0001141 243.8759 221.2583 15.50534156  3554"}}, "geometry": {"type": "Point", "coordinates": [-159.93824516171003, 16.247615679058878]}}, {"type": "Feature", "properties": {"norad_id": 66860, "name": "STARLINK-35987", "group": "last-30-days", "lat": 9.923621104357158, "lon": -152.5589432483762, "alt_km": 413.8004654889173, "timestamp": "2025-12-26T15:29:38.168198+00:00", "meta": {"OBJECT_NAME": "STARLINK-35987", "OBJECT_ID": "2025-281N", "EPOCH": "2025-12-26T06:00:02.999808", "MEAN_MOTION": 15.5052748, "ECCENTRICITY": 0.00014386, "INCLINATION": 43.0001, "RA_OF_ASC_NODE": 40.5765, "ARG_OF_PERICENTER": 273.3716, "MEAN_ANOMALY": 201.3471, "EPHEMERIS_TYPE": 0, "CLASSIFICATION_TYPE": "U", "NORAD_CAT_ID": 66860, "ELEMENT_SET_NO": 999, "REV_AT_EPOCH": 356, "BSTAR": 0.00087595262, "MEAN_MOTION_DOT": 0.00051289, "MEAN_MOTION_DDOT": 0}, "tle": {"line1": "1 66860U 25281N   25360.25003472  .00051289  00000+0  87595-3 0  9994", "line2": "2 66860  43.0001  40.5765 0001438 273.3716 201.3471 15.50527480  3567"}}, "geometry": {"type": "Point", "coordinates": [-152.5589432483762, 9.923621104357158]}}, {"type": "Feature", "properties": {"norad_id": 66861, "name": "STARLINK-35991", "group": "last-30-days", "lat": 13.742200753148314, "lon": -156.93825399375703, "alt_km": 413.0894147853969, "timestamp": "2025-12-26T15:29:38.168210+00:00", "meta": {"OBJECT_NAME": "STARLINK-35991", "OBJECT_ID": "2025-281P", "EPOCH": "2025-12-26T06:00:02.999808", "MEAN_MOTION": 15.50531614, "ECCENTRICITY": 9.014e-05, "INCLINATION": 43.0002, "RA_OF_ASC_NODE": 40.5906, "ARG_OF_PERICENTER": 264.9699, "MEAN_ANOMALY": 203.9981, "EPHEMERIS_TYPE": 0, "CLASSIFICATION_TYPE": "U", "NORAD_CAT_ID": 66861, "ELEMENT_SET_NO": 999, "REV_AT_EPOCH": 356, "BSTAR": 0.00064117818, "MEAN_MOTION_DOT": 0.00037389, "MEAN_MOTION_DDOT": 0}, "tle": {"line1": "1 66861U 25281P   25360.25003472  .00037389  00000+0  64118-3 0  9996", "line2": "2 66861  43.0002  40.5906 0000901 264.9699 203.9981 15.50531614  3564"}}, "geometry": {"type": "Point", "coordinates": [-156.93825399375703, 13.742200753148314]}}, {"type": "Feature", "properties": {"norad_id": 66862, "name": "STARLINK-35974", "group": "last-30-days", "lat": 15.041474800363734, "lon": -158.47980283923417, "alt_km": 412.7686172691747, "timestamp": "2025-12-26T15:29:38.168220+00:00", "meta": {"OBJECT_NAME": "STARLINK-35974", "OBJECT_ID": "2025-281Q", "EPOCH": "2025-12-26T06:00:02.999808", "MEAN_MOTION": 15.50521385, "ECCENTRICITY": 0.00010185, "INCLINATION": 43.0001, "RA_OF_ASC_NODE": 40.5951, "ARG_OF_PERICENTER": 248.3463, "MEAN_ANOMALY": 218.6554, "EPHEMERIS_TYPE": 0, "CLASSIFICATION_TYPE": "U", "NORAD_CAT_ID": 66862, "ELEMENT_SET_NO": 999, "REV_AT_EPOCH": 345, "BSTAR": 0.00068261821, "MEAN_MOTION_DOT": 0.00039825, "MEAN_MOTION_DDOT": 0}, "tle": {"line1": "1 66862U 25281Q   25360.25003472  .00039825  00000+0  68262-3 0  9998", "line2": "2 66862  43.0001  40.5951 0001018 248.3463 218.6554 15.50521385  3450"}}, "geometry": {"type": "Point", "coordinates": [-158.47980283923417, 15.041474800363734]}}, {"type": "Feature", "properties": {"norad_id": 66863, "name": "STARLINK-36134", "group": "last-30-days", "lat": 12.47616463657828, "lon": -155.46324343670258, "alt_km": 413.3520066692008, "timestamp": "2025-12-26T15:29:38.168230+00:00", "meta": {"OBJECT_NAME": "STARLINK-36134", "OBJECT_ID": "2025-281R", "EPOCH": "2025-12-26T06:00:02.999808", "MEAN_MOTION": 15.50535993, "ECCENTRICITY": 9.568e-05, "INCLINATION": 43.0003, "RA_OF_ASC_NODE": 40.5862, "ARG_OF_PERICENTER": 272.766, "MEAN_ANOMALY": 198.1151, "EPHEMERIS_TYPE": 0, "CLASSIFICATION_TYPE": "U", "NORAD_CAT_ID": 66863, "ELEMENT_SET_NO": 999, "REV_AT_EPOCH": 356, "BSTAR": 0.00057351263, "MEAN_MOTION_DOT": 0.00033395, "MEAN_MOTION_DDOT": 0}, "tle": {"line1": "1 66863U 25281R   25360.25003472  .00033395  00000+0  57351-3 0  9992", "line2": "2 66863  43.0003  40.5862 0000956 272.7660 198.1151 15.50535993  3561"}}, "geometry": {"type": "Point", "coordinates": [-155.46324343670258, 12.47616463657828]}}, {"type": "Feature", "properties": {"norad_id": 66864, "name": "STARLINK-36070", "group": "last-30-days", "lat": 11.261207099820911, "lon": -154.071465910581, "alt_km": 413.3039289851922, "timestamp": "2025-12-26T15:29:38.168253+00:00", "meta": {"OBJECT_NAME": "STARLINK-36070", "OBJECT_ID": "2025-281S", "EPOCH": "2025-12-26T06:00:02.999808", "MEAN_MOTION": 15.50511514, "ECCENTRICITY": 0.00010884, "INCLINATION": 43.0001, "RA_OF_ASC_NODE": 40.5805, "ARG_OF_PERICENTER": 248.8129, "MEAN_ANOMALY": 223.9293, "EPHEMERIS_TYPE": 0, "CLASSIFICATION_TYPE": "U", "NORAD_CAT_ID": 66864, "ELEMENT_SET_NO": 999, "REV_AT_EPOCH": 359, "BSTAR": 0.00071070517, "MEAN_MOTION_DOT": 0.00041472, "MEAN_MOTION_DDOT": 0}, "tle": {"line1": "1 66864U 25281S   25360.25003472  .00041472  00000+0  71071-3 0  9993", "line2": "2 66864  43.0001  40.5805 0001088 248.8129 223.9293 15.50511514  3598"}}, "geometry": {"type": "Point", "coordinates": [-154.071465910581, 11.261207099820911]}}, {"type": "Feature", "properties": {"norad_id": 66865, "name": "STARLINK-36117", "group": "last-30-days", "lat": 8.637426161840526, "lon": -151.12414606671862, "alt_km": 413.9573348457834, "timestamp": "2025-12-26T15:29:38.168263+00:00", "meta": {"OBJECT_NAME": "STARLINK-36117", "OBJECT_ID": "2025-281T", "EPOCH": "2025-12-26T06:00:02.999808", "MEAN_MOTION": 15.5053479, "ECCENTRICITY": 0.00013061, "INCLINATION": 43.0003, "RA_OF_ASC_NODE": 40.5717, "ARG_OF_PERICENTER": 274.5757, "MEAN_ANOMALY": 202.0545, "EPHEMERIS_TYPE": 0, "CLASSIFICATION_TYPE": "U", "NORAD_CAT_ID": 66865, "ELEMENT_SET_NO": 999, "REV_AT_EPOCH": 356, "BSTAR": 0.0006436581, "MEAN_MOTION_DOT": 0.0003754, "MEAN_MOTION_DDOT": 0}, "tle": {"line1": "1 66865U 25281T   25360.25003472  .00037540  00000+0  64366-3 0  9994", "line2": "2 66865  43.0003  40.5717 0001306 274.5757 202.0545 15.50534790  3565"}}, "geometry": {"type": "Point", "coordinates": [-151.12414606671862, 8.637426161840526]}}, {"type": "Feature", "properties": {"norad_id": 66866, "name": "STARLINK-36126", "group": "last-30-days", "lat": 7.395023023556571, "lon": -149.7538801891449, "alt_km": 413.7333067143318, "timestamp": "2025-12-26T15:29:38.168273+00:00", "meta": {"OBJECT_NAME": "STARLINK-36126", "OBJECT_ID": "2025-281U", "EPOCH": "2025-12-26T06:00:02.999808", "MEAN_MOTION": 15.50512425, "ECCENTRICITY": 0.00010548, "INCLINATION": 43, "RA_OF_ASC_NODE": 40.5664, "ARG_OF_PERICENTER": 243.7909, "MEAN_ANOMALY": 234.7086, "EPHEMERIS_TYPE": 0, "CLASSIFICATION_TYPE": "U", "NORAD_CAT_ID": 66866, "ELEMENT_SET_NO": 999, "REV_AT_EPOCH": 359, "BSTAR": 0.00073851963, "MEAN_MOTION_DOT": 0.00043119, "MEAN_MOTION_DDOT": 0}, "tle": {"line1": "1 66866U 25281U   25360.25003472  .00043119  00000+0  73852-3 0  9994", "line2": "2 66866  43.0000  40.5664 0001054 243.7909 234.7086 15.50512425  3597"}}, "geometry": {"type": "Point", "coordinates": [-149.7538801891449, 7.395023023556571]}}, {"type": "Feature", "properties": {"norad_id": 66867, "name": "STARLINK-36101", "group": "last-30-days", "lat": 6.040364563860195, "lon": -148.27163046949013, "alt_km": 413.7606563614763, "timestamp": "2025-12-26T15:29:38.168283+00:00", "meta": {"OBJECT_NAME": "STARLINK-36101", "OBJECT_ID": "2025-281V", "EPOCH": "2025-12-26T06:00:02.999808", "MEAN_MOTION": 15.50514094, "ECCENTRICITY": 0.00010872, "INCLINATION": 43.0001, "RA_OF_ASC_NODE": 40.5627, "ARG_OF_PERICENTER": 234.1565, "MEAN_ANOMALY": 246.3388, "EPHEMERIS_TYPE": 0, "CLASSIFICATION_TYPE": "U", "NORAD_CAT_ID": 66867, "ELEMENT_SET_NO": 999, "REV_AT_EPOCH": 339, "BSTAR": 0.0008560945, "MEAN_MOTION_DOT": 0.00050086, "MEAN_MOTION_DDOT": 0}, "tle": {"line1": "1 66867U 25281V   25360.25003472  .00050086  00000+0  85609-3 0  9999", "line2": "2 66867  43.0001  40.5627 0001087 234.1565 246.3388 15.50514094  3392"}}, "geometry": {"type": "Point", "coordinates": [-148.27163046949013, 6.040364563860195]}}, {"type": "Feature", "properties": {"norad_id": 66868, "name": "STARLINK-36108", "group": "last-30-days", "lat": 4.8066153077820095, "lon": -146.93483543903727, "alt_km": 414.14254968662954, "timestamp": "2025-12-26T15:29:38.168296+00:00", "meta": {"OBJECT_NAME": "STARLINK-36108", "OBJECT_ID": "2025-281W", "EPOCH": "2025-12-26T06:00:02.999808", "MEAN_MOTION": 15.50507376, "ECCENTRICITY": 0.00011704, "INCLINATION": 43, "RA_OF_ASC_NODE": 40.5565, "ARG_OF_PERICENTER": 251.1491, "MEAN_ANOMALY": 231.1795, "EPHEMERIS_TYPE": 0, "CLASSIFICATION_TYPE": "U", "NORAD_CAT_ID": 66868, "ELEMENT_SET_NO": 999, "REV_AT_EPOCH": 339, "BSTAR": 0.00075906894, "MEAN_MOTION_DOT": 0.00044328, "MEAN_MOTION_DDOT": 0}, "tle": {"line1": "1 66868U 25281W   25360.25003472  .00044328  00000+0  75907-3 0  9992", "line2": "2 66868  43.0000  40.5565 0001170 251.1491 231.1795 15.50507376  3392"}}, "geometry": {"type": "Point", "coordinates": [-146.93483543903727, 4.8066153077820095]}}]}